[{"OBJECT_NAME":"SALSAT","OBJECT_ID":"2020-068K","EPOCH":"2026-03-09T22:26:21.804576","MEAN_MOTION":15.28191989,"ECCENTRICITY":0.00082652,"INCLINATION":97.8859,"RA_OF_ASC_NODE":66.0795,"ARG_OF_PERICENTER":295.8051,"MEAN_ANOMALY":64.2334,"EPHEMERIS_TYPE":0,"CLASSIFICATION_TYPE":"U","NORAD_CAT_ID":46495,"ELEMENT_SET_NO":999,"REV_AT_EPOCH":30019,"BSTAR":0.00040842582,"MEAN_MOTION_DOT":0.00011156,"MEAN_MOTION_DDOT":0},{"OBJECT_NAME":"STARLINK-35861","OBJECT_ID":"2025-254H","EPOCH":"2026-03-09T18:17:49.409088","MEAN_MOTION":15.30195905,"ECCENTRICITY":0.00010606,"INCLINATION":53.1583,"RA_OF_ASC_NODE":232.3413,"ARG_OF_PERICENTER":104.1985,"MEAN_ANOMALY":255.9133,"EPHEMERIS_TYPE":0,"CLASSIFICATION_TYPE":"U","NORAD_CAT_ID":66355,"ELEMENT_SET_NO":999,"REV_AT_EPOCH":1898,"BSTAR":0.00096962063,"MEAN_MOTION_DOT":0.00028465,"MEAN_MOTION_DDOT":0}]
